IRIDIUM 8 [+]           
1 24792U 97020A   15363.55390861  .00000030  00000-0  36805-5 0  9997
2 24792  86.3964 182.5849 0002031  89.8967 270.2462 14.34220094976422
IRIDIUM 7 [+]           
1 24793U 97020B   15363.12895108  .00000013  00000-0 -24752-5 0  9995
2 24793  86.3973 183.0160 0001927  86.4462 273.6954 14.34218024976367
IRIDIUM 6 [+]           
1 24794U 97020C   15363.54114421  .00000115  00000-0  34017-4 0  9990
2 24794  86.3967 182.7868 0001945  90.1843 269.9575 14.34212614976420
IRIDIUM 5 [+]           
1 24795U 97020D   15363.11627411  .00000013  00000-0 -23483-5 0  9996
2 24795  86.3951 183.0131 0001812  89.7772 270.3631 14.34216888976447
IRIDIUM 4 [-]           
1 24796U 97020E   15363.58281890  .00000203  00000-0  64481-4 0  9997
2 24796  86.3961 182.0748 0002135  88.0718 334.5054 14.35027240976493
IRIDIUM 914 [-]         
1 24836U 97030A   15363.59098128  .00000183  00000-0  53319-4 0  9999
2 24836  86.3939 200.2453 0003668  79.5434 337.5717 14.38628646971945
IRIDIUM 12 [+]          
1 24837U 97030B   15363.56188676  .00000072  00000-0  18636-4 0  9995
2 24837  86.3961 213.9624 0002007  88.8228 327.3248 14.34221771970176
IRIDIUM 10 [+]          
1 24839U 97030D   15363.61823400  .00000085  00000-0  23216-4 0  9998
2 24839  86.3960 213.9219 0002021  88.0385 324.3666 14.34222502970195
IRIDIUM 13 [+]          
1 24840U 97030E   15363.56806112  .00000079  00000-0  20991-4 0  9995
2 24840  86.3962 214.0716 0002085  92.4646 322.8806 14.34222614970173
IRIDIUM 16 [-]          
1 24841U 97030F   15363.59041148  .00000192  00000-0  58602-4 0  9995
2 24841  86.4040 214.2686 0001060 172.4198 187.7015 14.36594209970683
IRIDIUM 911 [-]         
1 24842U 97030G   15363.58033105  .00000251  00000-0  66421-4 0  9993
2 24842  86.4468 215.3685 0016565  72.3142 341.8045 14.44791603975601
IRIDIUM 15 [+]          
1 24869U 97034A   15363.55725513  .00000250  00000-0  82178-4 0  9990
2 24869  86.3970 245.6773 0001996  85.7041 321.5810 14.34216973967145
IRIDIUM 17 [-]          
1 24870U 97034B   15363.56013918  .00000230  00000-0  73131-4 0  9999
2 24870  86.3975 244.5377 0002594 109.7376 296.8544 14.35618264967310
IRIDIUM 920 [-]         
1 24871U 97034C   15363.61994964  .00000200  00000-0  58092-4 0  9991
2 24871  86.3984 231.9915 0010124 308.8424 106.0787 14.39352086969317
IRIDIUM 18 [+]          
1 24872U 97034D   15363.30076260  .00000258  00000-0  85040-4 0  9994
2 24872  86.3973 246.0112 0001871  84.2774 275.8635 14.34215947967105
IRIDIUM 921 [-]         
1 24873U 97034E   15363.57756759  .00003073  00000-0  18842-3 0  9995
2 24873  86.3936 318.8282 0008140 169.0645 243.4026 15.09737561  7245
IRIDIUM 26 [-]          
1 24903U 97043A   15363.44132596  .00000148  00000-0  44817-4 0  9994
2 24903  86.3985 119.1203 0001887  94.1038 334.9656 14.35145148961137
IRIDIUM 25 [+]          
1 24904U 97043B   15363.45832153  .00000284  00000-0  94260-4 0  9990
2 24904  86.3980 119.4244 0001868  97.6047 262.5361 14.34213228961030
IRIDIUM 46 [+]          
1 24905U 97043C   15363.40123746  .00000275  00000-0  91078-4 0  9991
2 24905  86.3988 119.9529 0001958  94.9742 265.1677 14.34213279961037
IRIDIUM 23 [S]          
1 24906U 97043D   15363.47512341  .00000034  00000-0  50542-5 0  9997
2 24906  86.3993 119.3842 0001874  93.1064 321.0213 14.34214031961058
IRIDIUM 22 [+]          
1 24907U 97043E   15363.43928533  .00000332  00000-0  11157-3 0  9996
2 24907  86.3990 120.0388 0001986  96.2362 263.9060 14.34213338961030
DUMMY MASS 1 [-]        
1 24925U 97048A   15362.83433545  .00000213  00000-0  21617-4 0  9999
2 24925  86.3369 290.6429 0008800 126.6609 233.5425 14.85031742991982
DUMMY MASS 2 [-]        
1 24926U 97048B   15362.86779284  .00000204  00000-0  20750-4 0  9993
2 24926  86.3369 291.6554 0009406 133.3570 286.3920 14.84800747991858
IRIDIUM 29 [-]          
1 24944U 97051A   15363.56938910  .00000202  00000-0  64584-4 0  9999
2 24944  86.3976 150.9307 0002312  89.4316 270.7144 14.34531227957635
IRIDIUM 32 [+]          
1 24945U 97051B   15363.53781141  .00000171  00000-0  54140-4 0  9991
2 24945  86.3975 151.0400 0001994  91.5591 268.5833 14.34211643957643
IRIDIUM 33 [-]          
1 24946U 97051C   15363.52849457  .00000176  00000-0  56675-4 0  9996
2 24946  86.3890 150.9410 0007929 173.6652 253.6232 14.33450467957302
IRIDIUM 28 [-]          
1 24948U 97051E   15363.51304488  .00000216  00000-0  68405-4 0  9996
2 24948  86.3981 150.4898 0001754  98.4537 303.4707 14.35432063957738
IRIDIUM 30 [+]          
1 24949U 97051F   15363.46171391  .00000136  00000-0  41590-4 0  9993
2 24949  86.3977 151.1593 0001960  90.6871 269.4549 14.34210785957614
IRIDIUM 31 [+]          
1 24950U 97051G   15363.52513217  .00000142  00000-0  43668-4 0  9994
2 24950  86.3976 151.1335 0002135  94.2790 265.8650 14.34211936957638
IRIDIUM 19 [+]          
1 24965U 97056A   15363.57929560  .00000021  00000-0  60309-6 0  9991
2 24965  86.3965 182.5817 0002019  90.9064 269.2363 14.34219500955781
IRIDIUM 35 [+]          
1 24966U 97056B   15363.59196150  .00000023  00000-0  11685-5 0  9999
2 24966  86.3964 182.5743 0001988  90.6178 269.5246 14.34220242955762
IRIDIUM 36 [-]          
1 24967U 97056C   15363.61127839  .00000201  00000-0  62972-4 0  9993
2 24967  86.3976 182.0400 0002235  92.0078 334.9679 14.35478786956039
IRIDIUM 37 [+]          
1 24968U 97056D   15363.56659516  .00000011  00000-0 -32545-5 0  9994
2 24968  86.3966 182.7556 0002047  90.2427 269.9003 14.34217710955761
IRIDIUM 34 [+]          
1 24969U 97056E   15363.58562594  .00000016  00000-0 -15194-5 0  9992
2 24969  86.3966 182.6850 0002037  91.8557 268.2872 14.34219698955761
IRIDIUM 43 [+]          
1 25039U 97069A   15363.57349276  .00000273  00000-0  90327-4 0  9998
2 25039  86.3978 245.8168 0002096  88.1271 272.0165 14.34215461949545
IRIDIUM 41 [+]          
1 25040U 97069B   15363.57628069  .00000261  00000-0  86142-4 0  9997
2 25040  86.3972 245.7846 0001807  84.4072 322.8469 14.34215278949547
IRIDIUM 40 [+]          
1 25041U 97069C   15363.59252241  .00000272  00000-0  89897-4 0  9997
2 25041  86.3974 246.0033 0002935  95.7954 264.3577 14.34216559949564
IRIDIUM 39 [+]          
1 25042U 97069D   15363.59885676  .00000273  00000-0  90319-4 0  9994
2 25042  86.3987 246.0454 0001797  79.8450 280.2949 14.34213061949548
IRIDIUM 38 [-]          
1 25043U 97069E   15363.23933345  .00000235  00000-0  74210-4 0  9993
2 25043  86.3974 243.7437 0001234 116.8719 358.4245 14.35898052949824
IRIDIUM 42 [-]          
1 25077U 97077A   15363.54142829  .00000293  00000-0  97048-4 0  9990
2 25077  86.3976 245.8283 0001897  91.0969 269.0444 14.34440159945409
IRIDIUM 44 [-]          
1 25078U 97077B   15363.58242142  .00000244  00000-0  74050-4 0  9998
2 25078  86.3972 236.7040 0001405 141.8668 279.4061 14.37971820946667
IRIDIUM 45 [+]          
1 25104U 97082A   15363.51879907  .00000014  00000-0 -21139-5 0  9999
2 25104  86.3974 151.1822 0000825 135.6844 224.4418 14.34209440943593
IRIDIUM 24 [-]          
1 25105U 97082B   15363.49875634  .00000252  00000-0  74015-4 0  9993
2 25105  86.3944 101.6706 0009967 315.8781  93.9332 14.39714299945785
IRIDIUM 47 [+]          
1 25106U 97082C   15363.47742058  .00000273  00000-0  90509-4 0  9994
2 25106  86.3978 119.3051 0001951  92.6513 267.4906 14.34210083943588
IRIDIUM 49 [+]          
1 25108U 97082E   15363.43300821  .00000027  00000-0  26373-5 0  9996
2 25108  86.3980 119.4121 0001916  94.6391 331.2807 14.34213046943581
IRIDIUM 52 [+]          
1 25169U 98010A   15363.58907852  .00000080  00000-0  21582-4 0  9993
2 25169  86.3964 214.2214 0002033  89.0212 271.1217 14.34218249935014
IRIDIUM 56 [+]          
1 25170U 98010B   15363.09433724 -.00000046  00000-0 -23502-4 0  9991
2 25170  86.3966 214.5314 0001657  82.3919 277.7465 14.34218302934929
IRIDIUM 54 [+]          
1 25171U 98010C   15363.54467729  .00000086  00000-0  23564-4 0  9994
2 25171  86.3964 214.2580 0002035  88.6226 271.5203 14.34222661935152
IRIDIUM 50 [+]          
1 25172U 98010D   15363.58724959  .00000083  00000-0  22661-4 0  9994
2 25172  86.3964 214.1993 0002093  86.7473 329.4014 14.34222008934996
IRIDIUM 53 [+]          
1 25173U 98010E   15363.60547402  .00000072  00000-0  18780-4 0  9999
2 25173  86.3965 214.1977 0002045  88.4576 323.5683 14.34222479935002
IRIDIUM 51 [S]          
1 25262U 98018A   15363.12261224 -.00000067  00000-0 -30904-4 0  9996
2 25262  86.3961 183.0511 0002011  82.2709 277.8716 14.34217588934325
IRIDIUM 61 [+]          
1 25263U 98018B   15363.57293946  .00000024  00000-0  15810-5 0  9993
2 25263  86.3966 182.7195 0002005  90.2562 269.8863 14.34219678930090
IRIDIUM 55 [+]          
1 25272U 98019A   15363.50610560  .00000131  00000-0  39678-4 0  9998
2 25272  86.3975 150.9652 0001985  92.7092 267.4331 14.34212138929283
IRIDIUM 57 [+]          
1 25273U 98019B   15363.55050572  .00000209  00000-0  67503-4 0  9999
2 25273  86.3978 151.2300 0001987  92.5031 267.6392 14.34212039929294
IRIDIUM 58 [+]          
1 25274U 98019C   15363.55684317  .00000154  00000-0  47801-4 0  9998
2 25274  86.3981 151.4093 0001941  90.9165 269.2253 14.34211911929292
IRIDIUM 59 [+]          
1 25275U 98019D   15363.56319002  .00000107  00000-0  31235-4 0  9998
2 25275  86.3976 151.2889 0002088  91.0082 269.1353 14.34220491929294
IRIDIUM 60 [+]          
1 25276U 98019E   15363.56953590  .00000179  00000-0  56760-4 0  9994
2 25276  86.3974 150.9268 0001984  93.1325 267.0097 14.34211963929293
IRIDIUM 62 [+]          
1 25285U 98021A   15362.76355982  .00000286  00000-0  95066-4 0  9990
2 25285  86.3975  88.1779 0002030  94.4854 265.6574 14.34220682928131
IRIDIUM 63 [-]          
1 25286U 98021B   15363.41016528  .00000189  00000-0  59923-4 0  9998
2 25286  86.4002  88.2793 0002302  90.6219 315.7434 14.34543508928234
IRIDIUM 64 [+]          
1 25287U 98021C   15363.33438509  .00000316  00000-0  10559-3 0  9990
2 25287  86.3976  87.9773 0002155 101.2077 258.9361 14.34221847928196
